[{"OBJECT_NAME":"OBJECT AD","OBJECT_ID":"2023-085AD","EPOCH":"2026-03-09T21:41:29.115744","MEAN_MOTION":15.31779154,"ECCENTRICITY":0.00101154,"INCLINATION":97.4841,"RA_OF_ASC_NODE":180.2223,"ARG_OF_PERICENTER":77.5993,"MEAN_ANOMALY":282.638,"EPHEMERIS_TYPE":0,"CLASSIFICATION_TYPE":"U","NORAD_CAT_ID":57031,"ELEMENT_SET_NO":999,"REV_AT_EPOCH":15156,"BSTAR":0.00068352515,"MEAN_MOTION_DOT":0.00020961,"MEAN_MOTION_DDOT":0},{"OBJECT_NAME":"STARLINK-34712","OBJECT_ID":"2025-157D","EPOCH":"2026-03-09T22:02:37.002912","MEAN_MOTION":15.30210903,"ECCENTRICITY":0.00011398,"INCLINATION":53.1581,"RA_OF_ASC_NODE":344.2685,"ARG_OF_PERICENTER":70.3066,"MEAN_ANOMALY":289.8058,"EPHEMERIS_TYPE":0,"CLASSIFICATION_TYPE":"U","NORAD_CAT_ID":64907,"ELEMENT_SET_NO":999,"REV_AT_EPOCH":3616,"BSTAR":0.00085517831,"MEAN_MOTION_DOT":0.00025063,"MEAN_MOTION_DDOT":0}]
